SatCatId,ObjectName,LaunchYear,OrbitalPeriod,LaunchMass,StatusCode,Inclination,Status,UcsData,OrbitClassEstimated,LaunchSiteCountry,Owner,UseType,Purpose,LaunchVehicleClass,TLE1,TLE2,MeanMotion,Eccentricity,OrbitClass
53005,STARLINK-4288,2022,95.44,260.0,+,53.22,Active,1,LEO,USA,USA,Commercial,Communications,Falcon,1 53005U 22076V   23243.12807157  .00001692  00000+0  12435-3 0  9990,2 53005  53.2165 271.1739 0001372  89.7738 270.3411 15.08839493 64190,15.08839493,0.0001372,LEO
53006,STARLINK-4290,2022,95.44,260.0,+,53.22,Active,1,LEO,USA,USA,Commercial,Communications,Falcon,1 53006U 22076W   23242.93670920  .00006220  00000+0  40859-3 0  9998,2 53006  53.2150 272.0342 0001479  78.7280 281.3878 15.08835259 64165,15.08835259,0.0001479,LEO
53007,STARLINK-4215,2022,95.44,260.0,+,53.22,Active,1,LEO,USA,USA,Commercial,Communications,Falcon,1 53007U 22076X   23243.45191084  .00000729  00000+0  63913-4 0  9991,2 53007  53.2171 269.7194 0001299  91.3802 268.7339 15.08838381 64247,15.08838381,0.0001299,LEO
53008,STARLINK-4275,2022,95.44,260.0,+,53.22,Active,1,LEO,USA,USA,Commercial,Communications,Falcon,1 53008U 22076Y   23243.05910448  .00001679  00000+0  12356-3 0  9990,2 53008  53.2175 271.4833 0001405  92.0172 268.0982 15.08840251 64188,15.08840251,0.0001405,LEO
53009,STARLINK-4277,2022,95.44,260.0,+,53.22,Active,1,LEO,USA,USA,Commercial,Communications,Falcon,1 53009U 22076Z   23243.10691224  .00000459  00000+0  46938-4 0  9994,2 53009  53.2159 261.2689 0001316  88.9273 271.1870 15.08836214 64325,15.08836214,0.0001316,LEO
53010,STARLINK-4263,2022,95.44,260.0,+,53.22,Active,1,LEO,USA,USA,Commercial,Communications,Falcon,1 53010U 22076AA  23243.58805062 -.00005886  00000+0 -35174-3 0  9995,2 53010  53.2175 269.1112 0001168 200.1207 159.9739 15.08870127 64264,15.08870127,0.0001168,LEO
53011,STARLINK-4265,2022,95.44,260.0,+,53.22,Active,1,LEO,USA,USA,Commercial,Communications,Falcon,1 53011U 22076AB  23243.03699283  .00000429  00000+0  45050-4 0  9993,2 53011  53.2167 261.5815 0001230  89.6855 270.4278 15.08834242 64312,15.08834242,0.000123,LEO
53012,STARLINK-4271,2022,95.44,260.0,+,53.22,Active,1,LEO,USA,USA,Commercial,Communications,Falcon,1 53012U 22076AC  23243.11703807 -.00000192  00000+0  60278-5 0  9999,2 53012  53.2174 271.2241 0001234  79.3498 280.7633 15.08829118 64196,15.08829118,0.0001234,LEO
53013,STARLINK-4177,2022,95.44,260.0,+,53.22,Active,1,LEO,USA,USA,Commercial,Communications,Falcon,1 53013U 22076AD  23243.09587787  .00000886  00000+0  73811-4 0  9999,2 53013  53.2175 261.3177 0001416  95.6232 264.4922 15.08823917 64321,15.08823917,0.0001416,LEO
53014,STARLINK-4183,2022,95.44,260.0,+,53.22,Active,1,LEO,USA,USA,Commercial,Communications,Falcon,1 53014U 22076AE  23243.11058813  .00000213  00000+0  31463-4 0  9997,2 53014  53.2163 261.2511 0001436  88.3743 271.7414 15.08843475 64326,15.08843475,0.0001436,LEO
53015,STARLINK-4262,2022,95.44,260.0,+,53.22,Active,1,LEO,USA,USA,Commercial,Communications,Falcon,1 53015U 22076AF  23243.15475564 -.00000240  00000+0  30268-5 0  9992,2 53015  53.2173 261.0534 0001383  84.9511 275.1639 15.08832169 64333,15.08832169,0.0001383,LEO
53016,STARLINK-4283,2022,95.44,260.0,+,53.22,Active,1,LEO,USA,USA,Commercial,Communications,Falcon,1 53016U 22076AG  23243.09955337  .00000845  00000+0  71210-4 0  9998,2 53016  53.2158 261.3012 0001509  96.4088 263.7076 15.08832572 64323,15.08832572,0.0001509,LEO
53017,STARLINK-4281,2022,95.44,260.0,+,53.22,Active,1,LEO,USA,USA,Commercial,Communications,Falcon,1 53017U 22076AH  23243.08483113  .00000778  00000+0  66971-4 0  9999,2 53017  53.2175 261.3672 0001456  89.8860 270.2299 15.08837297 64329,15.08837297,0.0001456,LEO
53018,STARLINK-4279,2022,95.44,260.0,+,53.22,Active,1,LEO,USA,USA,Commercial,Communications,Falcon,1 53018U 22076AJ  23243.45285385 -.00002410  00000+0 -13333-3 0  9992,2 53018  53.2161 259.9753 0001444  83.8576 276.2580 15.08855543 64371,15.08855543,0.0001444,LEO
53019,STARLINK-4282,2022,95.44,260.0,+,53.22,Active,1,LEO,USA,USA,Commercial,Communications,Falcon,1 53019U 22076AK  23243.47490960  .00000278  00000+0  35525-4 0  9998,2 53019  53.2168 259.6139 0001156  96.2843 263.8281 15.08837760 64381,15.0883776,0.0001156,LEO
53020,STARLINK-4287,2022,95.44,260.0,+,53.22,Active,1,LEO,USA,USA,Commercial,Communications,Falcon,1 53020U 22076AL  23242.76099921  .00001151  00000+0  90401-4 0  9998,2 53020  53.2171 262.8191 0001317  93.4489 266.6654 15.08828872 63800,15.08828872,0.0001317,LEO
53021,STARLINK-4203,2022,95.44,260.0,+,53.22,Active,1,LEO,USA,USA,Commercial,Communications,Falcon,1 53021U 22076AM  23243.07010926  .00000277  00000+0  35506-4 0  9995,2 53021  53.2159 261.4323 0001417  88.3875 271.7279 15.08839470 64326,15.0883947,0.0001417,LEO
53022,STARLINK-4216,2022,95.44,260.0,+,53.22,Active,1,LEO,USA,USA,Commercial,Communications,Falcon,1 53022U 22076AN  23242.74994832 -.00000812  00000+0 -32922-4 0  9992,2 53022  53.2166 262.8695 0001324  90.7341 269.3803 15.08839538 63807,15.08839538,0.0001324,LEO
53023,STARLINK-4284,2022,95.44,260.0,+,53.22,Active,1,LEO,USA,USA,Commercial,Communications,Falcon,1 53023U 22076AP  23243.06274614  .00001104  00000+0  87441-4 0  9997,2 53023  53.2177 261.4572 0001411  92.7849 267.3305 15.08839827 64325,15.08839827,0.0001411,LEO
53024,STARLINK-4289,2022,95.44,260.0,+,53.22,Active,1,LEO,USA,USA,Commercial,Communications,Falcon,1 53024U 22076AQ  23243.06642762  .00000737  00000+0  64385-4 0  9994,2 53024  53.2157 261.4462 0001422  86.0541 274.0614 15.08838570 64321,15.0883857,0.0001422,LEO
53025,STARLINK-4218,2022,95.44,260.0,+,53.22,Active,1,LEO,USA,USA,Commercial,Communications,Falcon,1 53025U 22076AR  23243.45648880 -.00009150  00000+0 -55676-3 0  9997,2 53025  53.2161 259.6985 0001395 103.6693 256.4454 15.08890898 64382,15.08890898,0.0001395,LEO
53026,STARLINK-4119,2022,95.44,260.0,+,53.22,Active,1,LEO,USA,USA,Commercial,Communications,Falcon,1 53026U 22076AS  23242.34514937 -.00000336  00000+0 -29920-5 0  9992,2 53026  53.2167 264.6879 0001498  94.8109 265.3054 15.08836889 63748,15.08836889,0.0001498,LEO
53027,STARLINK-4158,2022,95.44,260.0,+,53.22,Active,1,LEO,USA,USA,Commercial,Communications,Falcon,1 53027U 22076AT  23243.44546726  .00000536  00000+0  51767-4 0  9999,2 53027  53.2165 259.7477 0001455  85.9589 274.1570 15.08842701 64384,15.08842701,0.0001455,LEO
53029,STARLINK-4143,2022,95.44,260.0,+,53.22,Active,1,LEO,USA,USA,Commercial,Communications,Falcon,1 53029U 22076AV  23243.43166398  .00000667  00000+0  59999-4 0  9993,2 53029  53.2166 249.8062 0001259  88.9040 271.2096 15.08843282 64515,15.08843282,0.0001259,LEO
53030,STARLINK-4160,2022,95.47,260.0,+,53.22,Active,1,LEO,USA,USA,Commercial,Communications,Falcon,1 53030U 22076AW  23243.58334491  .00008118  00000+0  55136-3 0  9999,2 53030  53.2142 259.1560 0001210  74.4112 261.3966 15.07198391 64402,15.07198391,0.000121,LEO
53031,STARLINK-4137,2022,95.44,260.0,+,53.22,Active,1,LEO,USA,USA,Commercial,Communications,Falcon,1 53031U 22076AX  23243.28814756  .00002435  00000+0  17104-3 0  9993,2 53031  53.2165 250.4532 0001290  89.0617 271.0523 15.08839379 64496,15.08839379,0.000129,LEO
53032,STARLINK-4115,2022,95.44,260.0,+,53.22,Active,1,LEO,USA,USA,Commercial,Communications,Falcon,1 53032U 22076AY  23243.05171240  .00000495  00000+0  49204-4 0  9994,2 53032  53.2163 261.5161 0001494  84.2454 275.8708 15.08837081 64325,15.08837081,0.0001494,LEO
53033,STARLINK-4167,2022,95.44,260.0,+,53.22,Active,1,LEO,USA,USA,Commercial,Communications,Falcon,1 53033U 22076AZ  23243.49054060  .00000209  00000+0  31212-4 0  9996,2 53033  53.2171 249.5451 0001392  88.5872 271.5279 15.08853512 64526,15.08853512,0.0001392,LEO
53034,STARLINK-4151,2022,95.44,260.0,+,53.22,Active,1,LEO,USA,USA,Commercial,Communications,Falcon,1 53034U 22076BA  23242.76558982  .00000669  00000+0  60113-4 0  9990,2 53034  53.2166 252.7996 0001321 107.2826 252.8311 15.08839868 63943,15.08839868,0.0001321,LEO
53035,STARLINK-4157,2022,95.44,260.0,+,53.22,Active,1,LEO,USA,USA,Commercial,Communications,Falcon,1 53035U 22076BB  23242.75454947  .00000478  00000+0  48144-4 0  9994,2 53035  53.2166 252.8488 0001345  91.5567 268.5579 15.08840743 63948,15.08840743,0.0001345,LEO
53036,STARLINK-4155,2022,95.44,260.0,+,53.22,Active,1,LEO,USA,USA,Commercial,Communications,Falcon,1 53036U 22076BC  23242.75087029  .00000565  00000+0  53617-4 0  9996,2 53036  53.2166 252.8654 0001366  89.8393 270.2756 15.08838886 63946,15.08838886,0.0001366,LEO
53037,STARLINK-4153,2022,95.44,260.0,+,53.22,Active,1,LEO,USA,USA,Commercial,Communications,Falcon,1 53037U 22076BD  23243.40958837  .00000657  00000+0  59348-4 0  9993,2 53037  53.2172 249.9088 0001358  86.1982 273.9166 15.08843115 64506,15.08843115,0.0001358,LEO
53038,STARLINK-4156,2022,95.44,260.0,+,53.22,Active,1,LEO,USA,USA,Commercial,Communications,Falcon,1 53038U 22076BE  23243.00847142  .00001019  00000+0  82142-4 0  9997,2 53038  53.2165 251.7087 0001357  90.5626 269.5521 15.08835453 64447,15.08835453,0.0001357,LEO
53043,STARLINK-4362,2022,95.92,260.0,+,97.66,Active,1,LEO,USA,USA,Commercial,Communications,Falcon,1 53043U 22077A   23243.24043454  .00000263  00000+0  25079-4 0  9990,2 53043  97.6563  63.2449 0003183  64.1618 295.9934 15.01259592 61964,15.01259592,0.0003183,LEO
53044,STARLINK-4349,2022,95.92,260.0,+,97.66,Active,1,LEO,USA,USA,Commercial,Communications,Falcon,1 53044U 22077B   23242.77016541 -.00000097  00000+0 -29467-5 0  9998,2 53044  97.6561  62.7805 0003427  59.0144 301.1416 15.01259572 62606,15.01259572,0.0003427,LEO
53045,STARLINK-4350,2022,95.92,260.0,+,97.66,Active,1,LEO,USA,USA,Commercial,Communications,Falcon,1 53045U 22077C   23243.24228792 -.00000754  00000+0 -54062-4 0  9993,2 53045  97.6567  63.2305 0003176  59.7489 300.4049 15.01265765 63251,15.01265765,0.0003176,LEO
